[{"OBJECT_NAME":"ONEWEB-0563","OBJECT_ID":"2023-029E","EPOCH":"2026-03-09T16:08:05.171712","MEAN_MOTION":13.20772118,"ECCENTRICITY":0.00015351,"INCLINATION":87.9161,"RA_OF_ASC_NODE":294.3602,"ARG_OF_PERICENTER":95.2144,"MEAN_ANOMALY":264.9165,"EPHEMERIS_TYPE":0,"CLASSIFICATION_TYPE":"U","NORAD_CAT_ID":55800,"ELEMENT_SET_NO":999,"REV_AT_EPOCH":14800,"BSTAR":-8.4194183e-5,"MEAN_MOTION_DOT":-2.1e-7,"MEAN_MOTION_DDOT":0},{"OBJECT_NAME":"FENGYUN 1C DEB","OBJECT_ID":"1999-025AQS","EPOCH":"2026-03-09T01:28:31.050336","MEAN_MOTION":13.67055719,"ECCENTRICITY":0.02345904,"INCLINATION":99.5212,"RA_OF_ASC_NODE":113.2013,"ARG_OF_PERICENTER":48.622,"MEAN_ANOMALY":313.4838,"EPHEMERIS_TYPE":0,"CLASSIFICATION_TYPE":"U","NORAD_CAT_ID":30684,"ELEMENT_SET_NO":999,"REV_AT_EPOCH":94808,"BSTAR":0.0014376814,"MEAN_MOTION_DOT":1.412e-5,"MEAN_MOTION_DDOT":0}]
